[{"OBJECT_NAME":"YAOGAN-30 05A","OBJECT_ID":"2018-011B","EPOCH":"2026-03-09T23:00:41.042304","MEAN_MOTION":15.02108706,"ECCENTRICITY":0.00040081,"INCLINATION":34.9973,"RA_OF_ASC_NODE":35.5053,"ARG_OF_PERICENTER":199.9129,"MEAN_ANOMALY":160.1423,"EPHEMERIS_TYPE":0,"CLASSIFICATION_TYPE":"U","NORAD_CAT_ID":43170,"ELEMENT_SET_NO":999,"REV_AT_EPOCH":44321,"BSTAR":0.00032465095,"MEAN_MOTION_DOT":4.327e-5,"MEAN_MOTION_DDOT":0},{"OBJECT_NAME":"STARLINK-4425","OBJECT_ID":"2022-084V","EPOCH":"2026-03-09T18:15:24.103296","MEAN_MOTION":15.01258882,"ECCENTRICITY":0.00031475,"INCLINATION":97.6029,"RA_OF_ASC_NODE":130.2739,"ARG_OF_PERICENTER":84.2116,"MEAN_ANOMALY":275.9467,"EPHEMERIS_TYPE":0,"CLASSIFICATION_TYPE":"U","NORAD_CAT_ID":53208,"ELEMENT_SET_NO":999,"REV_AT_EPOCH":19932,"BSTAR":-1.5268226e-5,"MEAN_MOTION_DOT":-2.54e-6,"MEAN_MOTION_DDOT":0}]
